EUTELSAT 21B            
1 38992U 12062B   26015.16319705  .00000149  00000+0  00000+0 0  9990
2 38992   0.0660 353.2890 0003174 306.3633 255.3319  1.00275115 48297
EUTELSAT 70B            
1 39020U 12069A   26015.10157669 -.00000024  00000+0  00000+0 0  9996
2 39020   0.0610   1.4921 0003731 269.5315 310.5772  1.00271236 47979
EUTELSAT 117 WEST A     
1 39122U 13012A   26015.10829601  .00000006  00000+0  00000+0 0  9999
2 39122   0.0253 311.7456 0002776 352.0115  92.9695  1.00271988 46898
EUTELSAT 7B             
1 39163U 13022A   26015.08892326  .00000067  00000+0  00000+0 0  9993
2 39163   0.0692 342.3472 0005286 349.3762 181.8277  1.00270371 46411
EXPRESS-AT1             
1 39612U 14010A   26015.16995709  .00000098  00000+0  00000+0 0  9992
2 39612   0.0230 265.6118 0000401 308.4649  17.7201  1.00271271 43282
EXPRESS-AT2             
1 39613U 14010B   26015.18668387 -.00000263  00000+0  00000+0 0  9999
2 39613   0.0151 359.3974 0001585 288.5327  33.7548  1.00271049 42960
EUTELSAT 3B             
1 39773U 14030A   26015.15947036  .00000038  00000+0  00000+0 0  9995
2 39773   0.0602   1.6910 0003236 242.2290 291.1806  1.00271699 42537
EUTELSAT 115 WEST B     
1 40425U 15010B   26015.13615689 -.00000006  00000+0  00000+0 0  9990
2 40425   0.0078 113.8302 0000283 193.5833 101.2756  1.00272694 39853
